NASBSAT-2
1 67285U 25313AP  26200.21197616  .00003252  00000-0  13691-3 0  9990
2 67285  97.3905 274.5705 0008849 241.8318 118.2026 15.24051613 30842
HORS-5
1 67283U 25313AM  26200.19352303  .00003077  00000-0  12883-3 0  9998
2 67283  97.3919 274.6468 0008910 239.6436 120.3921 15.24273391 30844
AIST-2T 2
1 67253U 25313F   26200.17304523  .00018761  00000-0  22703-3 0  9992
2 67253  97.0816 277.7460 0004986 133.2256 226.9419 15.60713978 31619
AIST-2T 1
1 67254U 25313G   26200.20525651  .00016526  00000-0  20050-3 0  9994
2 67254  97.0820 277.6991 0003828 109.8835 250.2836 15.60678455 31601
AIST-ST (RS86S)
1 67267U 25313V   26200.18231861  .00004921  00000-0  20249-3 0  9998
2 67267  97.3922 274.5285 0012013 252.7691 107.2232 15.24542657 30836
KOWSAR 1.5
1 67264U 25313S   26200.18906511  .00002899  00000-0  12740-3 0  9995
2 67264  97.4008 274.4302 0013217 254.5953 105.3824 15.22640456 30814
PAYA
1 67255U 25313H   26200.17886991  .00001017  00000-0  68190-4 0  9995
2 67255  97.2848 266.4054 0067365 223.1620 136.4317 15.07223289 30473
GRIFON-1
1 67281U 25313AK  26200.20389845  .00002399  00000-0  10555-3 0  9999
2 67281  97.3866 274.1934 0010419 243.6828 116.3339 15.22797010 30826
GRIFON-2
1 67272U 25313AA  26200.16847439  .00007053  00000-0  28927-3 0  9996
2 67272  97.3930 274.5411 0011983 247.7090 112.2877 15.24496929 30835
GRIFON-3
1 67280U 25313AJ  26200.15080984  .00002439  00000-0  10754-3 0  9990
2 67280  97.3981 274.4135 0011638 245.2261 114.7765 15.22699456 30811
GRIFON-4
1 67261U 25313P   26200.19098616  .00008469  00000-0  31868-3 0  9992
2 67261  97.3951 275.0601 0012262 240.0441 119.9581 15.27308743 30868
MARAFON
1 67250U 25313C   26200.15585367  .00004765  00000-0  41518-3 0  9998
2 67250  97.6148 269.6723 0148577 230.2912 128.5131 14.89190047 30112
MORSAT (RS96S)
1 67262U 25313Q   26199.72508359  .00001977  00000-0  82631-4 0  9991
2 67262  97.3922 274.0657 0012842 247.7099 112.2778 15.24725367 30769
MARAFON-EXPERIMENTAL
1 67251U 25313D   26200.18419560  .00000910  00000-0  83019-4 0  9994
2 67251  97.5672 269.1522 0147461 220.3205 138.7006 14.89718204 30162
GXIBA-1
1 67684U 98067YA  26200.04964982  .00398057  73583-4  10387-2 0  9996
2 67684  51.6148 121.9259 0001305 302.2209  57.8672 15.94402956 25416
CORAL
1 67685U 98067YB  26200.05947605  .00041772  00000-0  42198-3 0  9996
2 67685  51.6257 132.6295 0008470 338.5061  21.5577 15.64859327 25276
KNACKSAT-2
1 67683U 98067XZ  26200.22393463  .00034381  00000-0  37974-3 0  9994
2 67683  51.6273 132.9886 0008148 342.4900  17.5813 15.62683564 25284
RASSVET-3 1
1 68360U 26061A   26199.90247436  .00001123  00000-0  53703-4 0  9999
2 68360  82.2919 339.6730 0000905 154.9533 205.1744 15.18045704 18389
RASSVET-3 2
1 68361U 26061B   26199.08641940  .00003917  00000-0  12361-3 0  9994
2 68361  82.2891 339.1850 0005671 356.0368   4.0827 15.32537460 18348
RASSVET-3 3
1 68362U 26061C   26199.88947745  .00001316  00000-0  63161-4 0  9991
2 68362  82.2968 341.7969 0003458 121.9691 238.1879 15.18047092 18251
RASSVET-3 5
1 68364U 26061E   26199.89597801  .00001227  00000-0  58810-4 0  9994
2 68364  82.2975 342.6242 0001419 150.9369 209.1944 15.18036634 18200
RASSVET-3 6
1 68365U 26061F   26199.89167090  .00001304  00000-0  62563-4 0  9994
2 68365  82.2953 342.2798 0002749 106.9674 253.1860 15.18041112 18221
RASSVET-3 7
1 68366U 26061G   26199.89382899  .00001168  00000-0  55897-4 0  9991
2 68366  82.2951 341.6324 0002952  77.0199 283.1364 15.18027834 18265
RASSVET-3 8
1 68367U 26061H   26199.84225106  .00001815  00000-0  85464-4 0  9996
2 68367  82.2931 339.1385 0004469 293.2705  66.8058 15.18931907 18411
RASSVET-3 9
1 68368U 26061J   26199.90029767  .00001132  00000-0  54100-4 0  9994
2 68368  82.2937 339.8591 0003061 183.7717 176.3494 15.18047383 18379
RASSVET-3 10
1 68369U 26061K   26198.98861327  .00028326  00000-0  29087-3 0  9997
2 68369  82.2891 336.7255 0002277  43.9100 316.2339 15.64755565 18487
RASSVET-3 11
1 68370U 26061L   26199.85604338  .00026950  00000-0  25055-3 0  9995
2 68370  82.2938 337.0521 0007531  57.8029 302.3960 15.67213237 18544
RASSVET-3 12
1 68371U 26061M   26199.89813605  .00001188  00000-0  56895-4 0  9992
2 68371  82.2957 342.2803 0000263  88.5420 271.5843 15.18037114 18224
RASSVET-3 13
1 68372U 26061N   26199.90684389  .00000698  00000-0  32833-4 0  9991
2 68372  82.2970 341.8541 0001033 244.5178 115.5948 15.17990183 18253
RASSVET-3 14
1 68373U 26061P   26199.82284515  .00024399  00000-0  18874-3 0  9992
2 68373  82.2945 337.1775 0008755  11.4215 348.7244 15.71668679 18536
RASSVET-3 15
1 68374U 26061Q   26199.85307553  .00002247  00000-0  91332-4 0  9993
2 68374  82.2964 338.8531 0005039  94.4416 265.7397 15.24044066 18434
RASSVET-3 16
1 68375U 26061R   26200.10232347  .00001163  00000-0  55705-4 0  9993
2 68375  82.2939 339.6691 0000874 166.5239 193.6018 15.18012133 18408
HADES-SA (SPINNYONE)
1 68446U 26067AG  26200.15843721  .00010190  00000-0  47498-3 0  9996
2 68446  97.4420 158.0021 0005474 349.5393  10.5727 15.20060524 16788
